ONEWEB-0634             
1 56075U 23043AF  24365.75885383  .00000180  00000+0  44366-3 0  9996
2 56075  87.9068   5.4264 0001913 100.7073 259.4273 13.15550474 87176
ONEWEB-0635             
1 56076U 23043AG  24365.29775565  .00000176  00000+0  43367-3 0  9991
2 56076  87.9037   5.5503 0001756  77.0769 283.0557 13.15546925 87144
ONEWEB-0636             
1 56077U 23043AH  24365.44193270 -.00000322  00000+0 -88846-3 0  9992
2 56077  87.9065   5.5098 0001733  79.3087 280.8238 13.15548461 86235
ONEWEB-0637             
1 56078U 23043AJ  24365.73983319 -.00000008  00000+0 -55867-4 0  9995
2 56078  87.9067   5.4298 0001839  79.0695 281.0642 13.15549919 87207
ONEWEB-0647             
1 56079U 23043AK  24364.97450267 -.00000020  00000+0 -87831-4 0  9992
2 56079  87.9062   5.5958 0001584  84.8560 275.2751 13.15551036 86184
ONEWEB-0651             
1 56080U 23043AL  24365.73032783 -.00000103  00000+0 -30681-3 0  9990
2 56080  87.9069   5.4282 0001956  80.3649 279.7702 13.15550413 86288
ONEWEB-0718             
1 56081U 23043AM  24365.42136467 -.00000101  00000+0 -30269-3 0  9991
2 56081  87.9066   5.4744 0002116 101.9658 258.1710 13.15547964 86252
ONEWEB-0561             
1 56710U 23068A   24365.49119264  .00000100  00000+0  21496-3 0  9999
2 56710  87.9235  20.6657 0001701  71.9464 288.1855 13.20771225 79059
